{
"type": "FeatureCollection",
"name": "bus_stops",
"crs": { "type": "name", "properties": { "name": "urn:ogc:def:crs:OGC:1.3:CRS84" } },
"features": [
{ "type": "Feature", "properties": { "id": 1, "stop_id": 2763180, "suburb_name": "Acacia Gardens" }, "geometry": { "type": "Point", "coordinates": [ 150.909193613089002, -33.733855980886098 ] } },
{ "type": "Feature", "properties": { "id": 2, "stop_id": 276327, "suburb_name": "Acacia Gardens" }, "geometry": { "type": "Point", "coordinates": [ 150.906297618020005, -33.731595837965898 ] } },
{ "type": "Feature", "properties": { "id": 3, "stop_id": 276365, "suburb_name": "Acacia Gardens" }, "geometry": { "type": "Point", "coordinates": [ 150.915131090176004, -33.734451554433797 ] } },
{ "type": "Feature", "properties": { "id": 4, "stop_id": 276366, "suburb_name": "Acacia Gardens" }, "geometry": { "type": "Point", "coordinates": [ 150.911907072477987, -33.734707081857003 ] } },
{ "type": "Feature", "properties": { "id": 5, "stop_id": 276367, "suburb_name": "Acacia Gardens" }, "geometry": { "type": "Point", "coordinates": [ 150.909210104900012, -33.733981615019196 ] } },
{ "type": "Feature", "properties": { "id": 6, "stop_id": 276369, "suburb_name": "Acacia Gardens" }, "geometry": { "type": "Point", "coordinates": [ 150.909041322802011, -33.730265333098203 ] } },
{ "type": "Feature", "properties": { "id": 7, "stop_id": 276859, "suburb_name": "Acacia Gardens" }, "geometry": { "type": "Point", "coordinates": [ 150.919783363997993, -33.734060431246199 ] } },
{ "type": "Feature", "properties": { "id": 8, "stop_id": 2763136, "suburb_name": "Acacia Gardens" }, "geometry": { "type": "Point", "coordinates": [ 150.91430604662699, -33.729827973421898 ] } },
{ "type": "Feature", "properties": { "id": 9, "stop_id": 2763140, "suburb_name": "Acacia Gardens" }, "geometry": { "type": "Point", "coordinates": [ 150.918500587312991, -33.734786057164499 ] } },
{ "type": "Feature", "properties": { "id": 10, "stop_id": 2763141, "suburb_name": "Acacia Gardens" }, "geometry": { "type": "Point", "coordinates": [ 150.912888881268003, -33.732342024848101 ] } },
{ "type": "Feature", "properties": { "id": 11, "stop_id": 2763142, "suburb_name": "Acacia Gardens" }, "geometry": { "type": "Point", "coordinates": [ 150.91302696648799, -33.731346410233499 ] } },
{ "type": "Feature", "properties": { "id": 12, "stop_id": 2763143, "suburb_name": "Acacia Gardens" }, "geometry": { "type": "Point", "coordinates": [ 150.91330328214201, -33.730544654822097 ] } },
{ "type": "Feature", "properties": { "id": 13, "stop_id": 2763144, "suburb_name": "Acacia Gardens" }, "geometry": { "type": "Point", "coordinates": [ 150.913073059106011, -33.732597504505897 ] } },
{ "type": "Feature", "properties": { "id": 14, "stop_id": 2763145, "suburb_name": "Acacia Gardens" }, "geometry": { "type": "Point", "coordinates": [ 150.913618804905013, -33.734400444806703 ] } },
{ "type": "Feature", "properties": { "id": 15, "stop_id": 2763146, "suburb_name": "Acacia Gardens" }, "geometry": { "type": "Point", "coordinates": [ 150.916502957652, -33.734498094800799 ] } },
{ "type": "Feature", "properties": { "id": 16, "stop_id": 2763147, "suburb_name": "Acacia Gardens" }, "geometry": { "type": "Point", "coordinates": [ 150.918419872301001, -33.734671477167304 ] } },
{ "type": "Feature", "properties": { "id": 17, "stop_id": 2763154, "suburb_name": "Acacia Gardens" }, "geometry": { "type": "Point", "coordinates": [ 150.913351535076998, -33.730182675245601 ] } },
{ "type": "Feature", "properties": { "id": 18, "stop_id": 2763174, "suburb_name": "Acacia Gardens" }, "geometry": { "type": "Point", "coordinates": [ 150.90693964669299, -33.730295901131797 ] } },
{ "type": "Feature", "properties": { "id": 19, "stop_id": 2763179, "suburb_name": "Acacia Gardens" }, "geometry": { "type": "Point", "coordinates": [ 150.913774902851003, -33.734512635284702 ] } },
{ "type": "Feature", "properties": { "id": 20, "stop_id": 2763133, "suburb_name": "Acacia Gardens" }, "geometry": { "type": "Point", "coordinates": [ 150.914167404164004, -33.729625117145702 ] } },
{ "type": "Feature", "properties": { "id": 21, "stop_id": 2763134, "suburb_name": "Acacia Gardens" }, "geometry": { "type": "Point", "coordinates": [ 150.919100593742996, -33.730198319210302 ] } },
{ "type": "Feature", "properties": { "id": 22, "stop_id": 2763173, "suburb_name": "Acacia Gardens" }, "geometry": { "type": "Point", "coordinates": [ 150.909492965075003, -33.729998699427803 ] } },
{ "type": "Feature", "properties": { "id": 23, "stop_id": 276346, "suburb_name": "Acacia Gardens" }, "geometry": { "type": "Point", "coordinates": [ 150.906091769928992, -33.731575325773399 ] } },
{ "type": "Feature", "properties": { "id": 24, "stop_id": 276368, "suburb_name": "Acacia Gardens" }, "geometry": { "type": "Point", "coordinates": [ 150.907298864572994, -33.730131327346797 ] } },
{ "type": "Feature", "properties": { "id": 25, "stop_id": 2763135, "suburb_name": "Acacia Gardens" }, "geometry": { "type": "Point", "coordinates": [ 150.918967557345013, -33.730355737811699 ] } },
{ "type": "Feature", "properties": { "id": 26, "stop_id": 276816, "suburb_name": "Glenwood" }, "geometry": { "type": "Point", "coordinates": [ 150.923637168720006, -33.737920778286899 ] } },
{ "type": "Feature", "properties": { "id": 27, "stop_id": 2768163, "suburb_name": "Glenwood" }, "geometry": { "type": "Point", "coordinates": [ 150.93782266370701, -33.732782723839598 ] } },
{ "type": "Feature", "properties": { "id": 28, "stop_id": 2768164, "suburb_name": "Glenwood" }, "geometry": { "type": "Point", "coordinates": [ 150.923913741678007, -33.728846752646099 ] } },
{ "type": "Feature", "properties": { "id": 29, "stop_id": 2768165, "suburb_name": "Glenwood" }, "geometry": { "type": "Point", "coordinates": [ 150.939392624931003, -33.729146155501297 ] } },
{ "type": "Feature", "properties": { "id": 30, "stop_id": 2768167, "suburb_name": "Glenwood" }, "geometry": { "type": "Point", "coordinates": [ 150.949870233830012, -33.747598976674198 ] } },
{ "type": "Feature", "properties": { "id": 31, "stop_id": 276817, "suburb_name": "Glenwood" }, "geometry": { "type": "Point", "coordinates": [ 150.926316287953, -33.738249996205198 ] } },
{ "type": "Feature", "properties": { "id": 32, "stop_id": 276818, "suburb_name": "Glenwood" }, "geometry": { "type": "Point", "coordinates": [ 150.927686892871009, -33.7363770767831 ] } },
{ "type": "Feature", "properties": { "id": 33, "stop_id": 276819, "suburb_name": "Glenwood" }, "geometry": { "type": "Point", "coordinates": [ 150.927584826669005, -33.733667975337397 ] } },
{ "type": "Feature", "properties": { "id": 34, "stop_id": 276820, "suburb_name": "Glenwood" }, "geometry": { "type": "Point", "coordinates": [ 150.927998524293002, -33.729734949701097 ] } },
{ "type": "Feature", "properties": { "id": 35, "stop_id": 276821, "suburb_name": "Glenwood" }, "geometry": { "type": "Point", "coordinates": [ 150.930623351858998, -33.727227306248302 ] } },
{ "type": "Feature", "properties": { "id": 36, "stop_id": 276822, "suburb_name": "Glenwood" }, "geometry": { "type": "Point", "coordinates": [ 150.933049690095999, -33.726987735587699 ] } },
{ "type": "Feature", "properties": { "id": 37, "stop_id": 276823, "suburb_name": "Glenwood" }, "geometry": { "type": "Point", "coordinates": [ 150.93487255402701, -33.726758366059798 ] } },
{ "type": "Feature", "properties": { "id": 38, "stop_id": 276824, "suburb_name": "Glenwood" }, "geometry": { "type": "Point", "coordinates": [ 150.935681437005002, -33.726759583469402 ] } },
{ "type": "Feature", "properties": { "id": 39, "stop_id": 276825, "suburb_name": "Glenwood" }, "geometry": { "type": "Point", "coordinates": [ 150.938301785829992, -33.7272255943153 ] } },
{ "type": "Feature", "properties": { "id": 40, "stop_id": 276826, "suburb_name": "Glenwood" }, "geometry": { "type": "Point", "coordinates": [ 150.938443838079991, -33.731744628649501 ] } },
{ "type": "Feature", "properties": { "id": 41, "stop_id": 276827, "suburb_name": "Glenwood" }, "geometry": { "type": "Point", "coordinates": [ 150.937949034857013, -33.734130352280097 ] } },
{ "type": "Feature", "properties": { "id": 42, "stop_id": 276828, "suburb_name": "Glenwood" }, "geometry": { "type": "Point", "coordinates": [ 150.937685036571992, -33.736139247951002 ] } },
{ "type": "Feature", "properties": { "id": 43, "stop_id": 276829, "suburb_name": "Glenwood" }, "geometry": { "type": "Point", "coordinates": [ 150.938326949583001, -33.7381462399604 ] } },
{ "type": "Feature", "properties": { "id": 44, "stop_id": 276830, "suburb_name": "Glenwood" }, "geometry": { "type": "Point", "coordinates": [ 150.937529512878001, -33.7398117313003 ] } },
{ "type": "Feature", "properties": { "id": 45, "stop_id": 276831, "suburb_name": "Glenwood" }, "geometry": { "type": "Point", "coordinates": [ 150.932343478359996, -33.7391482405381 ] } },
{ "type": "Feature", "properties": { "id": 46, "stop_id": 276832, "suburb_name": "Glenwood" }, "geometry": { "type": "Point", "coordinates": [ 150.926300905967992, -33.738385653225002 ] } },
{ "type": "Feature", "properties": { "id": 47, "stop_id": 276833, "suburb_name": "Glenwood" }, "geometry": { "type": "Point", "coordinates": [ 150.923566290306013, -33.738022156733599 ] } },
{ "type": "Feature", "properties": { "id": 48, "stop_id": 276834, "suburb_name": "Glenwood" }, "geometry": { "type": "Point", "coordinates": [ 150.920244249377987, -33.737785412854102 ] } },
{ "type": "Feature", "properties": { "id": 49, "stop_id": 276835, "suburb_name": "Glenwood" }, "geometry": { "type": "Point", "coordinates": [ 150.923979691148986, -33.728637397180698 ] } },
{ "type": "Feature", "properties": { "id": 50, "stop_id": 276836, "suburb_name": "Glenwood" }, "geometry": { "type": "Point", "coordinates": [ 150.925862951965001, -33.729730876357202 ] } },
{ "type": "Feature", "properties": { "id": 51, "stop_id": 276865, "suburb_name": "Glenwood" }, "geometry": { "type": "Point", "coordinates": [ 150.943143844145993, -33.740875810159601 ] } },
{ "type": "Feature", "properties": { "id": 52, "stop_id": 276866, "suburb_name": "Glenwood" }, "geometry": { "type": "Point", "coordinates": [ 150.941630745914011, -33.740338478860799 ] } },
{ "type": "Feature", "properties": { "id": 53, "stop_id": 276867, "suburb_name": "Glenwood" }, "geometry": { "type": "Point", "coordinates": [ 150.938542451643997, -33.739319808393901 ] } },
{ "type": "Feature", "properties": { "id": 54, "stop_id": 276868, "suburb_name": "Glenwood" }, "geometry": { "type": "Point", "coordinates": [ 150.93822542628601, -33.738284649534101 ] } },
{ "type": "Feature", "properties": { "id": 55, "stop_id": 276869, "suburb_name": "Glenwood" }, "geometry": { "type": "Point", "coordinates": [ 150.937588651088987, -33.735682760441598 ] } },
{ "type": "Feature", "properties": { "id": 56, "stop_id": 276870, "suburb_name": "Glenwood" }, "geometry": { "type": "Point", "coordinates": [ 150.937469956114001, -33.733559931970099 ] } },
{ "type": "Feature", "properties": { "id": 57, "stop_id": 276871, "suburb_name": "Glenwood" }, "geometry": { "type": "Point", "coordinates": [ 150.934485719885004, -33.733159590686903 ] } },
{ "type": "Feature", "properties": { "id": 58, "stop_id": 276872, "suburb_name": "Glenwood" }, "geometry": { "type": "Point", "coordinates": [ 150.931354103303988, -33.7326016749413 ] } },
{ "type": "Feature", "properties": { "id": 59, "stop_id": 276873, "suburb_name": "Glenwood" }, "geometry": { "type": "Point", "coordinates": [ 150.928350201537995, -33.731769274318502 ] } },
{ "type": "Feature", "properties": { "id": 60, "stop_id": 276874, "suburb_name": "Glenwood" }, "geometry": { "type": "Point", "coordinates": [ 150.927406853743008, -33.730240399325197 ] } },
{ "type": "Feature", "properties": { "id": 61, "stop_id": 276875, "suburb_name": "Glenwood" }, "geometry": { "type": "Point", "coordinates": [ 150.925561826136004, -33.729749475079302 ] } },
{ "type": "Feature", "properties": { "id": 62, "stop_id": 276877, "suburb_name": "Glenwood" }, "geometry": { "type": "Point", "coordinates": [ 150.927487259418996, -33.730111682115002 ] } },
{ "type": "Feature", "properties": { "id": 63, "stop_id": 276878, "suburb_name": "Glenwood" }, "geometry": { "type": "Point", "coordinates": [ 150.92838629749599, -33.731614934880596 ] } },
{ "type": "Feature", "properties": { "id": 64, "stop_id": 276879, "suburb_name": "Glenwood" }, "geometry": { "type": "Point", "coordinates": [ 150.931578206263993, -33.732549473298803 ] } },
{ "type": "Feature", "properties": { "id": 65, "stop_id": 276880, "suburb_name": "Glenwood" }, "geometry": { "type": "Point", "coordinates": [ 150.93449031930399, -33.733024277222498 ] } },
{ "type": "Feature", "properties": { "id": 66, "stop_id": 276881, "suburb_name": "Glenwood" }, "geometry": { "type": "Point", "coordinates": [ 150.938674103489006, -33.739603957213397 ] } },
{ "type": "Feature", "properties": { "id": 67, "stop_id": 276882, "suburb_name": "Glenwood" }, "geometry": { "type": "Point", "coordinates": [ 150.942026360048999, -33.740262751539802 ] } },
{ "type": "Feature", "properties": { "id": 68, "stop_id": 276883, "suburb_name": "Glenwood" }, "geometry": { "type": "Point", "coordinates": [ 150.943161527054002, -33.741497008394703 ] } },
{ "type": "Feature", "properties": { "id": 69, "stop_id": 276890, "suburb_name": "Glenwood" }, "geometry": { "type": "Point", "coordinates": [ 150.928957271163, -33.738688503749103 ] } },
{ "type": "Feature", "properties": { "id": 70, "stop_id": 2155219, "suburb_name": "Glenwood" }, "geometry": { "type": "Point", "coordinates": [ 150.940025860922987, -33.7246023525881 ] } },
{ "type": "Feature", "properties": { "id": 71, "stop_id": 2768143, "suburb_name": "Glenwood" }, "geometry": { "type": "Point", "coordinates": [ 150.952122513711004, -33.753185708526502 ] } },
{ "type": "Feature", "properties": { "id": 72, "stop_id": 2153389, "suburb_name": "Glenwood" }, "geometry": { "type": "Point", "coordinates": [ 150.950003148742013, -33.748144390724399 ] } },
{ "type": "Feature", "properties": { "id": 73, "stop_id": 2768103, "suburb_name": "Glenwood" }, "geometry": { "type": "Point", "coordinates": [ 150.938079481784001, -33.7327384766647 ] } },
{ "type": "Feature", "properties": { "id": 74, "stop_id": 2768104, "suburb_name": "Glenwood" }, "geometry": { "type": "Point", "coordinates": [ 150.939317180014001, -33.729382854431599 ] } },
{ "type": "Feature", "properties": { "id": 75, "stop_id": 2768105, "suburb_name": "Glenwood" }, "geometry": { "type": "Point", "coordinates": [ 150.937712457212001, -33.727073205302702 ] } },
{ "type": "Feature", "properties": { "id": 76, "stop_id": 2768106, "suburb_name": "Glenwood" }, "geometry": { "type": "Point", "coordinates": [ 150.935342187418001, -33.7268875559298 ] } },
{ "type": "Feature", "properties": { "id": 77, "stop_id": 2768107, "suburb_name": "Glenwood" }, "geometry": { "type": "Point", "coordinates": [ 150.93269678886, -33.7270530585036 ] } },
{ "type": "Feature", "properties": { "id": 78, "stop_id": 2768108, "suburb_name": "Glenwood" }, "geometry": { "type": "Point", "coordinates": [ 150.930788170296012, -33.727294141133598 ] } },
{ "type": "Feature", "properties": { "id": 79, "stop_id": 2768109, "suburb_name": "Glenwood" }, "geometry": { "type": "Point", "coordinates": [ 150.928132270544012, -33.7298298113393 ] } },
{ "type": "Feature", "properties": { "id": 80, "stop_id": 2768110, "suburb_name": "Glenwood" }, "geometry": { "type": "Point", "coordinates": [ 150.927773752016009, -33.733553823084499 ] } },
{ "type": "Feature", "properties": { "id": 81, "stop_id": 2768111, "suburb_name": "Glenwood" }, "geometry": { "type": "Point", "coordinates": [ 150.927841779135008, -33.736462253665501 ] } },
{ "type": "Feature", "properties": { "id": 82, "stop_id": 276814, "suburb_name": "Glenwood" }, "geometry": { "type": "Point", "coordinates": [ 150.919859503634001, -33.737626434279498 ] } },
{ "type": "Feature", "properties": { "id": 83, "stop_id": 2768144, "suburb_name": "Glenwood" }, "geometry": { "type": "Point", "coordinates": [ 150.951606800532005, -33.752292130028501 ] } },
{ "type": "Feature", "properties": { "id": 84, "stop_id": 2768145, "suburb_name": "Glenwood" }, "geometry": { "type": "Point", "coordinates": [ 150.949627427619987, -33.747949176333499 ] } },
{ "type": "Feature", "properties": { "id": 85, "stop_id": 2768146, "suburb_name": "Glenwood" }, "geometry": { "type": "Point", "coordinates": [ 150.946235451641996, -33.740083031630597 ] } },
{ "type": "Feature", "properties": { "id": 86, "stop_id": 2768147, "suburb_name": "Glenwood" }, "geometry": { "type": "Point", "coordinates": [ 150.94595464326099, -33.739839710552303 ] } },
{ "type": "Feature", "properties": { "id": 87, "stop_id": 2768148, "suburb_name": "Glenwood" }, "geometry": { "type": "Point", "coordinates": [ 150.942824167281998, -33.732722001027902 ] } },
{ "type": "Feature", "properties": { "id": 88, "stop_id": 2768149, "suburb_name": "Glenwood" }, "geometry": { "type": "Point", "coordinates": [ 150.943787237370998, -33.734439346834002 ] } },
{ "type": "Feature", "properties": { "id": 89, "stop_id": 276815, "suburb_name": "Glenwood" }, "geometry": { "type": "Point", "coordinates": [ 150.923628963200002, -33.737740816356599 ] } },
{ "type": "Feature", "properties": { "id": 90, "stop_id": 2768150, "suburb_name": "Glenwood" }, "geometry": { "type": "Point", "coordinates": [ 150.932163560331986, -33.721753498459201 ] } },
{ "type": "Feature", "properties": { "id": 91, "stop_id": 2768151, "suburb_name": "Glenwood" }, "geometry": { "type": "Point", "coordinates": [ 150.93142491012901, -33.722344751681199 ] } },
{ "type": "Feature", "properties": { "id": 92, "stop_id": 2768152, "suburb_name": "Glenwood" }, "geometry": { "type": "Point", "coordinates": [ 150.923408111843003, -33.728637563745401 ] } },
{ "type": "Feature", "properties": { "id": 93, "stop_id": 2768153, "suburb_name": "Glenwood" }, "geometry": { "type": "Point", "coordinates": [ 150.923223397740003, -33.728607396527501 ] } },
{ "type": "Feature", "properties": { "id": 94, "stop_id": 2768154, "suburb_name": "Glenwood" }, "geometry": { "type": "Point", "coordinates": [ 150.919558263064005, -33.735275084848702 ] } },
{ "type": "Feature", "properties": { "id": 95, "stop_id": 2768155, "suburb_name": "Glenwood" }, "geometry": { "type": "Point", "coordinates": [ 150.919723500315996, -33.735350932139198 ] } }
]
}
