{
"type": "FeatureCollection",
"name": "suburbs",
"crs": { "type": "name", "properties": { "name": "urn:ogc:def:crs:OGC:1.3:CRS84" } },
"features": [
{ "type": "Feature", "properties": { "id": 6850, "name": "Glenwood", "postcode": 2768 }, "geometry": { "type": "Polygon", "coordinates": [ [ [ 150.952160113714001, -33.752625807110768 ], [ 150.951795455533272, -33.751845451638431 ], [ 150.951329815404364, -33.750738981208983 ], [ 150.951153338999859, -33.750320786795953 ], [ 150.950625162554388, -33.749014287906498 ], [ 150.950235760303514, -33.747969633565752 ], [ 150.950016520294156, -33.747390667767725 ], [ 150.949797585573378, -33.746841640085151 ], [ 150.949481358756202, -33.746055702666432 ], [ 150.949319202216742, -33.745687730556007 ], [ 150.949069484325634, -33.745134318919959 ], [ 150.948857623039117, -33.744650962527864 ], [ 150.948575922409361, -33.743879959378191 ], [ 150.948298625405442, -33.743196570531204 ], [ 150.94800202721467, -33.742542224823296 ], [ 150.947758565567028, -33.742001023456631 ], [ 150.947602826326317, -33.741682361674854 ], [ 150.947408739152451, -33.741325056823463 ], [ 150.947041073467233, -33.740706622415317 ], [ 150.946869307023974, -33.7404017927431 ], [ 150.94675703334542, -33.740217465348941 ], [ 150.946320532519991, -33.739362155551049 ], [ 150.946064191055825, -33.738841464507431 ], [ 150.94572678656084, -33.738165704219867 ], [ 150.945326957874983, -33.73736833079483 ], [ 150.945007579910737, -33.736708391679379 ], [ 150.944783803820286, -33.736184993808095 ], [ 150.944621250684122, -33.735823753238179 ], [ 150.944288041221739, -33.735036678032714 ], [ 150.943355188602993, -33.732885009881336 ], [ 150.943242914831757, -33.732615059858794 ], [ 150.942795980620133, -33.731694396852426 ], [ 150.942338791702497, -33.730649446760616 ], [ 150.942067273445872, -33.730006416681356 ], [ 150.941712901445868, -33.729198841586715 ], [ 150.941303069665736, -33.728291651478919 ], [ 150.940900614008513, -33.727378535341629 ], [ 150.940536391268921, -33.726580866222676 ], [ 150.940303356168414, -33.726043206120885 ], [ 150.940018714210851, -33.725446277030315 ], [ 150.939769060211546, -33.724898272927462 ], [ 150.939276761314034, -33.723812439702733 ], [ 150.939096514372494, -33.723285733522339 ], [ 150.938695933266729, -33.722396811309387 ], [ 150.938519165293229, -33.721926560153619 ], [ 150.937975296160715, -33.720692955808353 ], [ 150.937835503975151, -33.720354537698853 ], [ 150.93726032007163, -33.720508871393534 ], [ 150.935799569302105, -33.720857671141808 ], [ 150.934748774840926, -33.721065530193492 ], [ 150.934528011192555, -33.72110874615089 ], [ 150.93445442631122, -33.721123492469466 ], [ 150.934223586692781, -33.721168859465394 ], [ 150.932564490856208, -33.721416442476595 ], [ 150.932377592232115, -33.721450829258153 ], [ 150.93221796155828, -33.721480240923718 ], [ 150.932195766599307, -33.721488828017279 ], [ 150.932174907639137, -33.721495856104823 ], [ 150.932154174678487, -33.721503135191867 ], [ 150.932133575717472, -33.721510674278406 ], [ 150.932113128755987, -33.721518472364309 ], [ 150.932064014847413, -33.721538973570752 ], [ 150.932015931935638, -33.721561392773005 ], [ 150.931968611022029, -33.721585147971957 ], [ 150.931921801107734, -33.721609664168554 ], [ 150.931875243193872, -33.721634341363703 ], [ 150.931814099308525, -33.721667042619366 ], [ 150.93175347642341, -33.721700577872255 ], [ 150.931693687537546, -33.721735151121102 ], [ 150.931635045650182, -33.721770936364685 ], [ 150.931577845760415, -33.721808164601761 ], [ 150.931523890864838, -33.721845552824909 ], [ 150.931471030967856, -33.721884197042947 ], [ 150.931419371069268, -33.721924015255496 ], [ 150.931369012168744, -33.721964935462111 ], [ 150.931320078266225, -33.722006869662295 ], [ 150.929158429779591, -33.723977500658464 ], [ 150.927462578309331, -33.725732967617077 ], [ 150.927400162693914, -33.725805270771957 ], [ 150.927333901097967, -33.725875709938812 ], [ 150.927264125519713, -33.725943962116823 ], [ 150.927191204957097, -33.726009641305026 ], [ 150.927115486407871, -33.726072451502397 ], [ 150.927111461439267, -33.726080313509485 ], [ 150.927055060764076, -33.726118194661893 ], [ 150.926992331130776, -33.726161948829194 ], [ 150.926928077505295, -33.72620435700135 ], [ 150.926863115884714, -33.726246058175214 ], [ 150.926798217266594, -33.726287678347951 ], [ 150.926731669661109, -33.726330319523939 ], [ 150.926664628059882, -33.726372459700805 ], [ 150.926597093463101, -33.726414052878553 ], [ 150.926529110870405, -33.726455116057039 ], [ 150.92651352299572, -33.726481022083597 ], [ 150.926460681281696, -33.726495625236375 ], [ 150.925035775491978, -33.727333580728718 ], [ 150.923770554779395, -33.728095880410493 ], [ 150.923733355050189, -33.728113064490977 ], [ 150.923602742083744, -33.728195981739127 ], [ 150.923406046634767, -33.72831326711605 ], [ 150.923392940743355, -33.728322348138938 ], [ 150.923115006895728, -33.728465619689494 ], [ 150.922534225955076, -33.728871867613442 ], [ 150.921448579827825, -33.731110683340233 ], [ 150.92140684358526, -33.731209376248664 ], [ 150.921349269512291, -33.731318486170416 ], [ 150.920811906740369, -33.732389537216584 ], [ 150.920622258240883, -33.732787510785535 ], [ 150.920418860083203, -33.733214365290181 ], [ 150.920369946014944, -33.733315874168319 ], [ 150.920284269637364, -33.733489406959109 ], [ 150.920238831491247, -33.733578957850952 ], [ 150.920222983800812, -33.733612249808552 ], [ 150.920167963876878, -33.733727284660866 ], [ 150.91984548236897, -33.734401204052439 ], [ 150.919843115418871, -33.734406431049337 ], [ 150.918843982459038, -33.736360843998874 ], [ 150.91831610810641, -33.737448512704752 ], [ 150.918291366898274, -33.737499222598572 ], [ 150.918158805967437, -33.737747856117053 ], [ 150.917904672927705, -33.738486342211978 ], [ 150.918089032976098, -33.738531887407078 ], [ 150.918215146638772, -33.738563582854361 ], [ 150.918884452637315, -33.738723757949586 ], [ 150.91995441839947, -33.738997970231807 ], [ 150.920802161545652, -33.739226676009302 ], [ 150.921719358671481, -33.739467851007753 ], [ 150.922623817256465, -33.739705682145967 ], [ 150.923766232615492, -33.740017287206101 ], [ 150.925263083524044, -33.740421177297691 ], [ 150.926776346348475, -33.740836458723976 ], [ 150.92767384400679, -33.741077088565135 ], [ 150.929114159792078, -33.741477194556801 ], [ 150.930296074418919, -33.741811686795273 ], [ 150.931206059531632, -33.742088701125184 ], [ 150.932358833550552, -33.742468550747915 ], [ 150.932942280321811, -33.742660801160113 ], [ 150.93409577155856, -33.743069971175942 ], [ 150.934997923763575, -33.743396952165661 ], [ 150.936064537698627, -33.743815785475412 ], [ 150.93656275509548, -33.744022378674018 ], [ 150.937284301047015, -33.744321579019349 ], [ 150.937869934043846, -33.74456441234971 ], [ 150.938760585316999, -33.744955215963437 ], [ 150.939858364796777, -33.745466431910813 ], [ 150.94078435028149, -33.745913511871343 ], [ 150.941528680998289, -33.746290725766961 ], [ 150.942575912334576, -33.746826137185508 ], [ 150.94360595922123, -33.747383537813093 ], [ 150.944546786983693, -33.747908801491818 ], [ 150.945868448210234, -33.748679885189837 ], [ 150.946689875486356, -33.749180875081585 ], [ 150.947437556827566, -33.749648697946562 ], [ 150.949026970767989, -33.750726435978272 ], [ 150.952465680959278, -33.753253210585882 ], [ 150.952160113714001, -33.752625807110768 ] ] ] } },
{ "type": "Feature", "properties": { "id": 6859, "name": "Acacia Gardens", "postcode": 2763 }, "geometry": { "type": "Polygon", "coordinates": [ [ [ 150.917531088469502, -33.729724018137652 ], [ 150.917177355008704, -33.729731853634995 ], [ 150.917096133821929, -33.729733806978295 ], [ 150.917006673717964, -33.729736013356167 ], [ 150.916858187203218, -33.729739276984297 ], [ 150.913535129056157, -33.729734701250457 ], [ 150.913350104890696, -33.729735607041164 ], [ 150.913159370772405, -33.729734460863035 ], [ 150.913141380950492, -33.729734469940183 ], [ 150.912045948789682, -33.729734904637446 ], [ 150.911178306271552, -33.729711270445321 ], [ 150.910361545042434, -33.729874400333905 ], [ 150.909645034868561, -33.730055403682265 ], [ 150.909640346917939, -33.730056165699146 ], [ 150.909522786158874, -33.730076101118584 ], [ 150.909471789696994, -33.730084752300243 ], [ 150.909313352355724, -33.730108551875965 ], [ 150.909132722259386, -33.730139038517343 ], [ 150.907555642226669, -33.730251292694199 ], [ 150.907415814520249, -33.730230299371733 ], [ 150.906686646276626, -33.730120798921313 ], [ 150.906542766559284, -33.730085266686814 ], [ 150.906541206583768, -33.730087677682675 ], [ 150.906480513539947, -33.730182516517196 ], [ 150.906464494008105, -33.730264760218432 ], [ 150.906290706128885, -33.731173426874044 ], [ 150.906271774711854, -33.731279685473844 ], [ 150.906242821471466, -33.731407234017503 ], [ 150.906240097545918, -33.731420060970834 ], [ 150.906203524627443, -33.731614103244262 ], [ 150.906312148632537, -33.731629108745949 ], [ 150.906877443592975, -33.732788403422184 ], [ 150.907008129373878, -33.733056416760824 ], [ 150.906943777274535, -33.733131722671175 ], [ 150.906954632196999, -33.733138418601598 ], [ 150.907413064916199, -33.733415617711671 ], [ 150.907712648784013, -33.733595791850689 ], [ 150.907864892709938, -33.733688567906917 ], [ 150.90814937921769, -33.733737420675013 ], [ 150.90813636367281, -33.733821233372566 ], [ 150.908132948775659, -33.733839054310508 ], [ 150.908098760803455, -33.734017158689582 ], [ 150.90806270988233, -33.73420412803614 ], [ 150.908006703550257, -33.734493287021877 ], [ 150.90799885978339, -33.734533714879653 ], [ 150.907954732090673, -33.734760566080134 ], [ 150.907915453250752, -33.734962075367321 ], [ 150.907883056143362, -33.73512800685964 ], [ 150.907871044595424, -33.735189562676645 ], [ 150.907850569662003, -33.735294351365305 ], [ 150.90781799317466, -33.735461107869874 ], [ 150.907909717568288, -33.73571937661913 ], [ 150.907938849577903, -33.735787117273709 ], [ 150.907960666729764, -33.735847865978577 ], [ 150.907892313579254, -33.736200273930031 ], [ 150.907802615430683, -33.736662545555724 ], [ 150.908535340743498, -33.736771750656338 ], [ 150.909386220840503, -33.736900631279411 ], [ 150.910241760983695, -33.737025765897627 ], [ 150.911077293393816, -33.737146640597189 ], [ 150.911801423795026, -33.737270824663298 ], [ 150.912980802581075, -33.737465176909332 ], [ 150.913913144824988, -33.737637372078268 ], [ 150.915000751507023, -33.737841342592738 ], [ 150.917115286234463, -33.738302028615706 ], [ 150.917904672927705, -33.738486342211978 ], [ 150.918158805967437, -33.737747856117053 ], [ 150.918291366898274, -33.737499222598572 ], [ 150.91831610810641, -33.737448512704752 ], [ 150.918843982459038, -33.736360843998874 ], [ 150.919843115418871, -33.734406431049337 ], [ 150.91984548236897, -33.734401204052439 ], [ 150.920167963876878, -33.733727284660866 ], [ 150.920222983800812, -33.733612249808552 ], [ 150.920238831491247, -33.733578957850952 ], [ 150.920284269637364, -33.733489406959109 ], [ 150.920369946014944, -33.733315874168319 ], [ 150.920418860083203, -33.733214365290181 ], [ 150.920622258240883, -33.732787510785535 ], [ 150.920811906740369, -33.732389537216584 ], [ 150.921349269512291, -33.731318486170416 ], [ 150.92140684358526, -33.731209376248664 ], [ 150.921261081362132, -33.731146109689732 ], [ 150.919986750140225, -33.730658158594501 ], [ 150.917923824343291, -33.729873462078885 ], [ 150.917531088469502, -33.729724018137652 ] ] ] } }
]
}
