{
"type": "FeatureCollection",
"name": "bus_stop_inventory",
"crs": { "type": "name", "properties": { "name": "urn:ogc:def:crs:OGC:1.3:CRS84" } },
"features": [
{ "type": "Feature", "properties": { "stop_id": 2763144, "shelter": "Yes", "seat": "Yes", "timetable": "Yes", "advertising": "No", "other_comments": "school bus stop", "stop_name": "Quakers Hill East Public School, Chase Dr", "suburb": "Acacia Gardens", "num_amenities": 3 }, "geometry": { "type": "Point", "coordinates": [ 150.913073059106011, -33.732597504505897 ] } },
{ "type": "Feature", "properties": { "stop_id": 2763141, "shelter": "no", "seat": "no", "timetable": "no", "advertising": "no", "other_comments": "Not a sign to indicate", "stop_name": "Chase Dr Opp Quakers Hill East Public School", "suburb": "Acacia Gardens", "num_amenities": 0 }, "geometry": { "type": "Point", "coordinates": [ 150.912888881268003, -33.732342024848101 ] } },
{ "type": "Feature", "properties": { "stop_id": 2763142, "shelter": "no", "seat": "no", "timetable": "no", "advertising": "no", "other_comments": "Not a sign to indicate", "stop_name": "Chase Dr At Hydrangea Ct", "suburb": "Acacia Gardens", "num_amenities": 0 }, "geometry": { "type": "Point", "coordinates": [ 150.91302696648799, -33.731346410233499 ] } },
{ "type": "Feature", "properties": { "stop_id": 2763143, "shelter": "no", "seat": "no", "timetable": "no", "advertising": "no", "other_comments": null, "stop_name": "Chase Dr After Quakers Hill Pkwy", "suburb": "Acacia Gardens", "num_amenities": 0 }, "geometry": { "type": "Point", "coordinates": [ 150.91330328214201, -33.730544654822097 ] } },
{ "type": "Feature", "properties": { "stop_id": 2763136, "shelter": "no", "seat": "no", "timetable": "no", "advertising": "no", "other_comments": "extremely busy street; dangerous", "stop_name": "Quakers Hill Pkwy Before Chase Dr", "suburb": "Acacia Gardens", "num_amenities": 0 }, "geometry": { "type": "Point", "coordinates": [ 150.91430604662699, -33.729827973421898 ] } },
{ "type": "Feature", "properties": { "stop_id": 2763135, "shelter": "yes", "seat": "yes", "timetable": "no", "advertising": "yes", "other_comments": null, "stop_name": "Quakers Hill Pkwy After Sunnyholt Rd", "suburb": "Acacia Gardens", "num_amenities": 3 }, "geometry": { "type": "Point", "coordinates": [ 150.918967557345013, -33.730355737811699 ] } },
{ "type": "Feature", "properties": { "stop_id": 276859, "shelter": "no", "seat": "no", "timetable": "no", "advertising": "no", "other_comments": null, "stop_name": "Sunnyholt Rd After Wilson Rd", "suburb": "Acacia Gardens", "num_amenities": 0 }, "geometry": { "type": "Point", "coordinates": [ 150.919783363997993, -33.734060431246199 ] } },
{ "type": "Feature", "properties": { "stop_id": 2763140, "shelter": "no", "seat": "no", "timetable": "no", "advertising": "no", "other_comments": null, "stop_name": "Wilson Rd After Trevor Toms Dr", "suburb": "Acacia Gardens", "num_amenities": 0 }, "geometry": { "type": "Point", "coordinates": [ 150.918500587312991, -33.734786057164499 ] } },
{ "type": "Feature", "properties": { "stop_id": 2763147, "shelter": "no", "seat": "no", "timetable": "no", "advertising": "no", "other_comments": null, "stop_name": "Wilson Rd After Tamarind Dr", "suburb": "Acacia Gardens", "num_amenities": 0 }, "geometry": { "type": "Point", "coordinates": [ 150.918419872301001, -33.734671477167304 ] } },
{ "type": "Feature", "properties": { "stop_id": 2763179, "shelter": "no", "seat": "no", "timetable": "no", "advertising": "no", "other_comments": null, "stop_name": "Wilson Rd Before Sciarra Cres", "suburb": "Acacia Gardens", "num_amenities": 0 }, "geometry": { "type": "Point", "coordinates": [ 150.913774902851003, -33.734512635284702 ] } },
{ "type": "Feature", "properties": { "stop_id": 2763145, "shelter": "no", "seat": "no", "timetable": "no", "advertising": "no", "other_comments": null, "stop_name": "Wilson Rd After Chase Dr", "suburb": "Acacia Gardens", "num_amenities": 0 }, "geometry": { "type": "Point", "coordinates": [ 150.913618804905013, -33.734400444806703 ] } },
{ "type": "Feature", "properties": { "stop_id": 276366, "shelter": "no", "seat": "no", "timetable": "no", "advertising": "no", "other_comments": null, "stop_name": "Wilson Rd At Sciarra Cres", "suburb": "Acacia Gardens", "num_amenities": 0 }, "geometry": { "type": "Point", "coordinates": [ 150.911907072477987, -33.734707081857003 ] } },
{ "type": "Feature", "properties": { "stop_id": 2763180, "shelter": "no", "seat": "no", "timetable": "no", "advertising": "no", "other_comments": null, "stop_name": "Wilson Rd Opp Sampson Cres", "suburb": "Acacia Gardens", "num_amenities": 0 }, "geometry": { "type": "Point", "coordinates": [ 150.909193613089002, -33.733855980886098 ] } },
{ "type": "Feature", "properties": { "stop_id": 276367, "shelter": "no", "seat": "no", "timetable": "no", "advertising": "no", "other_comments": null, "stop_name": "Wilson Rd At Sampson Cres", "suburb": "Acacia Gardens", "num_amenities": 0 }, "geometry": { "type": "Point", "coordinates": [ 150.909210104900012, -33.733981615019196 ] } },
{ "type": "Feature", "properties": { "stop_id": 276327, "shelter": "no", "seat": "no", "timetable": "yes", "advertising": "no", "other_comments": "small schedule posted", "stop_name": "Wilson Rd After Corinne St", "suburb": "Acacia Gardens", "num_amenities": 1 }, "geometry": { "type": "Point", "coordinates": [ 150.906297618020005, -33.731595837965898 ] } },
{ "type": "Feature", "properties": { "stop_id": 2763174, "shelter": "no", "seat": "no", "timetable": "no", "advertising": "no", "other_comments": "alongside 4 lane road", "stop_name": "Quakers Hill Pkwy At Pye Rd", "suburb": "Acacia Gardens", "num_amenities": 0 }, "geometry": { "type": "Point", "coordinates": [ 150.90693964669299, -33.730295901131797 ] } },
{ "type": "Feature", "properties": { "stop_id": 276369, "shelter": "no", "seat": "no", "timetable": "no", "advertising": "no", "other_comments": null, "stop_name": "Quakers Hill Pkwy Before Pye Rd", "suburb": "Acacia Gardens", "num_amenities": 0 }, "geometry": { "type": "Point", "coordinates": [ 150.909041322802011, -33.730265333098203 ] } },
{ "type": "Feature", "properties": { "stop_id": 2768144, "shelter": "Yes", "seat": "Yes", "timetable": "Yes", "advertising": "Yes", "other_comments": "There was no available street view data on the street of the bus stop, thus the bus stop was viewed from 33°45'07\"S 150°57'06\"E.", "stop_name": null, "suburb": "Glenwood", "num_amenities": 4 }, "geometry": { "type": "Point", "coordinates": [ 150.951606800532005, -33.752292130028501 ] } },
{ "type": "Feature", "properties": { "stop_id": 2153389, "shelter": "Yes", "seat": "Yes", "timetable": "Yes", "advertising": "Yes", "other_comments": "Norwest Childrens Specialist", "stop_name": null, "suburb": "Glenwood", "num_amenities": 4 }, "geometry": { "type": "Point", "coordinates": [ 150.950003148742013, -33.748144390724399 ] } },
{ "type": "Feature", "properties": { "stop_id": 2768145, "shelter": "Yes", "seat": "Yes", "timetable": "Yes", "advertising": "Yes", "other_comments": "Norwest Childrens Specialist", "stop_name": null, "suburb": "Glenwood", "num_amenities": 4 }, "geometry": { "type": "Point", "coordinates": [ 150.949627427619987, -33.747949176333499 ] } },
{ "type": "Feature", "properties": { "stop_id": 2768167, "shelter": "No", "seat": "No", "timetable": "No", "advertising": "No", "other_comments": "Norwest Childrens Specialist", "stop_name": null, "suburb": "Glenwood", "num_amenities": 0 }, "geometry": { "type": "Point", "coordinates": [ 150.949870233830012, -33.747598976674198 ] } },
{ "type": "Feature", "properties": { "stop_id": 2768146, "shelter": "Yes", "seat": "Yes", "timetable": "Yes", "advertising": "Yes", "other_comments": "Valentine Sports Park", "stop_name": null, "suburb": "Glenwood", "num_amenities": 4 }, "geometry": { "type": "Point", "coordinates": [ 150.946235451641996, -33.740083031630597 ] } },
{ "type": "Feature", "properties": { "stop_id": 2768147, "shelter": "Yes", "seat": "Yes", "timetable": "Yes", "advertising": "Yes", "other_comments": "Valentine Sports Park", "stop_name": null, "suburb": "Glenwood", "num_amenities": 4 }, "geometry": { "type": "Point", "coordinates": [ 150.94595464326099, -33.739839710552303 ] } },
{ "type": "Feature", "properties": { "stop_id": 2768149, "shelter": "Yes", "seat": "Yes", "timetable": "Yes", "advertising": "Yes", "other_comments": null, "stop_name": null, "suburb": "Glenwood", "num_amenities": 4 }, "geometry": { "type": "Point", "coordinates": [ 150.943787237370998, -33.734439346834002 ] } },
{ "type": "Feature", "properties": { "stop_id": 2768148, "shelter": "Yes", "seat": "Yes", "timetable": "Yes", "advertising": "Yes", "other_comments": "Emmanuel Baptist Church", "stop_name": null, "suburb": "Glenwood", "num_amenities": 4 }, "geometry": { "type": "Point", "coordinates": [ 150.942824167281998, -33.732722001027902 ] } },
{ "type": "Feature", "properties": { "stop_id": 2768150, "shelter": "Yes", "seat": "Yes", "timetable": "Yes", "advertising": "Yes", "other_comments": "Parklea Markets", "stop_name": null, "suburb": "Glenwood", "num_amenities": 4 }, "geometry": { "type": "Point", "coordinates": [ 150.932163560331986, -33.721753498459201 ] } },
{ "type": "Feature", "properties": { "stop_id": 2768151, "shelter": "Yes", "seat": "Yes", "timetable": "Yes", "advertising": "Yes", "other_comments": "Parklea Markets", "stop_name": null, "suburb": "Glenwood", "num_amenities": 4 }, "geometry": { "type": "Point", "coordinates": [ 150.93142491012901, -33.722344751681199 ] } },
{ "type": "Feature", "properties": { "stop_id": 2768153, "shelter": "Yes", "seat": "Yes", "timetable": "Yes", "advertising": "Yes", "other_comments": null, "stop_name": null, "suburb": "Glenwood", "num_amenities": 4 }, "geometry": { "type": "Point", "coordinates": [ 150.923223397740003, -33.728607396527501 ] } },
{ "type": "Feature", "properties": { "stop_id": 2768152, "shelter": "Yes", "seat": "Yes", "timetable": "Yes", "advertising": "Yes", "other_comments": null, "stop_name": null, "suburb": "Glenwood", "num_amenities": 4 }, "geometry": { "type": "Point", "coordinates": [ 150.923408111843003, -33.728637563745401 ] } },
{ "type": "Feature", "properties": { "stop_id": 2768154, "shelter": "Yes", "seat": "Yes", "timetable": "Yes", "advertising": "Yes", "other_comments": null, "stop_name": null, "suburb": "Glenwood", "num_amenities": 4 }, "geometry": { "type": "Point", "coordinates": [ 150.919558263064005, -33.735275084848702 ] } },
{ "type": "Feature", "properties": { "stop_id": 2768155, "shelter": "Yes", "seat": "Yes", "timetable": "Yes", "advertising": "Yes", "other_comments": null, "stop_name": null, "suburb": "Glenwood", "num_amenities": 4 }, "geometry": { "type": "Point", "coordinates": [ 150.919723500315996, -33.735350932139198 ] } },
{ "type": "Feature", "properties": { "stop_id": 276814, "shelter": "No", "seat": "No", "timetable": "Yes", "advertising": "No", "other_comments": "Gurdwara Sahib Glenwood", "stop_name": null, "suburb": "Glenwood", "num_amenities": 1 }, "geometry": { "type": "Point", "coordinates": [ 150.919859503634001, -33.737626434279498 ] } },
{ "type": "Feature", "properties": { "stop_id": 276834, "shelter": null, "seat": null, "timetable": null, "advertising": null, "other_comments": "Gurdwara Sahib Glenwood. Not even sure if this is a bus stop.", "stop_name": null, "suburb": "Glenwood", "num_amenities": 0 }, "geometry": { "type": "Point", "coordinates": [ 150.920244249377987, -33.737785412854102 ] } },
{ "type": "Feature", "properties": { "stop_id": 276815, "shelter": null, "seat": null, "timetable": null, "advertising": null, "other_comments": "Holy Cross Primary School. Not even sure if this is a bus stop.", "stop_name": null, "suburb": "Glenwood", "num_amenities": 0 }, "geometry": { "type": "Point", "coordinates": [ 150.923628963200002, -33.737740816356599 ] } },
{ "type": "Feature", "properties": { "stop_id": 276816, "shelter": "No", "seat": "No", "timetable": "Yes", "advertising": "No", "other_comments": null, "stop_name": null, "suburb": "Glenwood", "num_amenities": 1 }, "geometry": { "type": "Point", "coordinates": [ 150.923637168720006, -33.737920778286899 ] } },
{ "type": "Feature", "properties": { "stop_id": 276833, "shelter": "No", "seat": "No", "timetable": "Yes", "advertising": "No", "other_comments": null, "stop_name": null, "suburb": "Glenwood", "num_amenities": 1 }, "geometry": { "type": "Point", "coordinates": [ 150.923566290306013, -33.738022156733599 ] } },
{ "type": "Feature", "properties": { "stop_id": 276832, "shelter": "Yes", "seat": "Yes", "timetable": "Yes", "advertising": "No", "other_comments": null, "stop_name": null, "suburb": "Glenwood", "num_amenities": 3 }, "geometry": { "type": "Point", "coordinates": [ 150.926300905967992, -33.738385653225002 ] } },
{ "type": "Feature", "properties": { "stop_id": 276819, "shelter": "Yes", "seat": "Yes", "timetable": "Yes", "advertising": "No", "other_comments": null, "stop_name": null, "suburb": "Glenwood", "num_amenities": 3 }, "geometry": { "type": "Point", "coordinates": [ 150.927584826669005, -33.733667975337397 ] } },
{ "type": "Feature", "properties": { "stop_id": 2768110, "shelter": "No", "seat": "No", "timetable": "Yes", "advertising": "No", "other_comments": null, "stop_name": null, "suburb": "Glenwood", "num_amenities": 1 }, "geometry": { "type": "Point", "coordinates": [ 150.927773752016009, -33.733553823084499 ] } },
{ "type": "Feature", "properties": { "stop_id": 276874, "shelter": "No", "seat": "No", "timetable": "Yes", "advertising": "No", "other_comments": null, "stop_name": null, "suburb": "Glenwood", "num_amenities": 1 }, "geometry": { "type": "Point", "coordinates": [ 150.927406853743008, -33.730240399325197 ] } },
{ "type": "Feature", "properties": { "stop_id": 276877, "shelter": "Yes", "seat": "Yes", "timetable": "Yes", "advertising": "No", "other_comments": null, "stop_name": null, "suburb": "Glenwood", "num_amenities": 3 }, "geometry": { "type": "Point", "coordinates": [ 150.927487259418996, -33.730111682115002 ] } },
{ "type": "Feature", "properties": { "stop_id": 276836, "shelter": "Yes", "seat": "Yes", "timetable": "Yes", "advertising": "No", "other_comments": null, "stop_name": null, "suburb": "Glenwood", "num_amenities": 3 }, "geometry": { "type": "Point", "coordinates": [ 150.925862951965001, -33.729730876357202 ] } },
{ "type": "Feature", "properties": { "stop_id": 276875, "shelter": "No", "seat": "No", "timetable": "Yes", "advertising": "No", "other_comments": null, "stop_name": null, "suburb": "Glenwood", "num_amenities": 1 }, "geometry": { "type": "Point", "coordinates": [ 150.925561826136004, -33.729749475079302 ] } },
{ "type": "Feature", "properties": { "stop_id": 2768164, "shelter": "No", "seat": "No", "timetable": "Yes", "advertising": "No", "other_comments": null, "stop_name": null, "suburb": "Glenwood", "num_amenities": 1 }, "geometry": { "type": "Point", "coordinates": [ 150.923913741678007, -33.728846752646099 ] } },
{ "type": "Feature", "properties": { "stop_id": 276835, "shelter": "No", "seat": "No", "timetable": "Yes", "advertising": "No", "other_comments": null, "stop_name": null, "suburb": "Glenwood", "num_amenities": 1 }, "geometry": { "type": "Point", "coordinates": [ 150.923979691148986, -33.728637397180698 ] } },
{ "type": "Feature", "properties": { "stop_id": 276820, "shelter": "Yes", "seat": "Yes", "timetable": "Yes", "advertising": "No", "other_comments": null, "stop_name": null, "suburb": "Glenwood", "num_amenities": 3 }, "geometry": { "type": "Point", "coordinates": [ 150.927998524293002, -33.729734949701097 ] } },
{ "type": "Feature", "properties": { "stop_id": 2768109, "shelter": "No", "seat": "No", "timetable": "Yes", "advertising": "No", "other_comments": null, "stop_name": null, "suburb": "Glenwood", "num_amenities": 1 }, "geometry": { "type": "Point", "coordinates": [ 150.928132270544012, -33.7298298113393 ] } },
{ "type": "Feature", "properties": { "stop_id": 276821, "shelter": "No", "seat": "No", "timetable": "No", "advertising": "No", "other_comments": null, "stop_name": null, "suburb": "Glenwood", "num_amenities": 0 }, "geometry": { "type": "Point", "coordinates": [ 150.930623351858998, -33.727227306248302 ] } },
{ "type": "Feature", "properties": { "stop_id": 2768108, "shelter": "No", "seat": "No", "timetable": "No", "advertising": "No", "other_comments": null, "stop_name": null, "suburb": "Glenwood", "num_amenities": 0 }, "geometry": { "type": "Point", "coordinates": [ 150.930788170296012, -33.727294141133598 ] } },
{ "type": "Feature", "properties": { "stop_id": 276822, "shelter": "No", "seat": "No", "timetable": "Yes", "advertising": "No", "other_comments": null, "stop_name": null, "suburb": "Glenwood", "num_amenities": 1 }, "geometry": { "type": "Point", "coordinates": [ 150.933049690095999, -33.726987735587699 ] } },
{ "type": "Feature", "properties": { "stop_id": 2768107, "shelter": "Yes", "seat": "Yes", "timetable": "Yes", "advertising": "No", "other_comments": null, "stop_name": null, "suburb": "Glenwood", "num_amenities": 3 }, "geometry": { "type": "Point", "coordinates": [ 150.93269678886, -33.7270530585036 ] } },
{ "type": "Feature", "properties": { "stop_id": 276823, "shelter": "No", "seat": "No", "timetable": "No", "advertising": "No", "other_comments": "Parklea Public School. Is this even a bus stop", "stop_name": null, "suburb": "Glenwood", "num_amenities": 0 }, "geometry": { "type": "Point", "coordinates": [ 150.93487255402701, -33.726758366059798 ] } },
{ "type": "Feature", "properties": { "stop_id": 2768106, "shelter": "No", "seat": "No", "timetable": "Yes", "advertising": "No", "other_comments": null, "stop_name": null, "suburb": "Glenwood", "num_amenities": 1 }, "geometry": { "type": "Point", "coordinates": [ 150.935342187418001, -33.7268875559298 ] } },
{ "type": "Feature", "properties": { "stop_id": 276824, "shelter": "Yes", "seat": "Yes", "timetable": "Yes", "advertising": "No", "other_comments": null, "stop_name": null, "suburb": "Glenwood", "num_amenities": 3 }, "geometry": { "type": "Point", "coordinates": [ 150.935681437005002, -33.726759583469402 ] } },
{ "type": "Feature", "properties": { "stop_id": 276825, "shelter": "No", "seat": "No", "timetable": "Yes", "advertising": "No", "other_comments": null, "stop_name": null, "suburb": "Glenwood", "num_amenities": 1 }, "geometry": { "type": "Point", "coordinates": [ 150.938301785829992, -33.7272255943153 ] } },
{ "type": "Feature", "properties": { "stop_id": 2768105, "shelter": "No", "seat": "No", "timetable": "Yes", "advertising": "No", "other_comments": null, "stop_name": null, "suburb": "Glenwood", "num_amenities": 1 }, "geometry": { "type": "Point", "coordinates": [ 150.937712457212001, -33.727073205302702 ] } },
{ "type": "Feature", "properties": { "stop_id": 2768165, "shelter": "No", "seat": "No", "timetable": "Yes", "advertising": "No", "other_comments": null, "stop_name": null, "suburb": "Glenwood", "num_amenities": 1 }, "geometry": { "type": "Point", "coordinates": [ 150.939392624931003, -33.729146155501297 ] } },
{ "type": "Feature", "properties": { "stop_id": 2768104, "shelter": "No", "seat": "No", "timetable": "Yes", "advertising": "No", "other_comments": null, "stop_name": null, "suburb": "Glenwood", "num_amenities": 1 }, "geometry": { "type": "Point", "coordinates": [ 150.939317180014001, -33.729382854431599 ] } },
{ "type": "Feature", "properties": { "stop_id": 276826, "shelter": "No", "seat": "No", "timetable": "Yes", "advertising": "No", "other_comments": null, "stop_name": null, "suburb": "Glenwood", "num_amenities": 1 }, "geometry": { "type": "Point", "coordinates": [ 150.938443838079991, -33.731744628649501 ] } },
{ "type": "Feature", "properties": { "stop_id": 2768103, "shelter": "No", "seat": "No", "timetable": "Yes", "advertising": "No", "other_comments": null, "stop_name": null, "suburb": "Glenwood", "num_amenities": 1 }, "geometry": { "type": "Point", "coordinates": [ 150.938079481784001, -33.7327384766647 ] } },
{ "type": "Feature", "properties": { "stop_id": 2768163, "shelter": "No", "seat": "No", "timetable": "No", "advertising": "No", "other_comments": "Glenwood High School. Is this even a bus stop", "stop_name": null, "suburb": "Glenwood", "num_amenities": 0 }, "geometry": { "type": "Point", "coordinates": [ 150.93782266370701, -33.732782723839598 ] } },
{ "type": "Feature", "properties": { "stop_id": 276870, "shelter": "No", "seat": "No", "timetable": "Yes", "advertising": "No", "other_comments": null, "stop_name": null, "suburb": "Glenwood", "num_amenities": 1 }, "geometry": { "type": "Point", "coordinates": [ 150.937469956114001, -33.733559931970099 ] } },
{ "type": "Feature", "properties": { "stop_id": 276871, "shelter": "No", "seat": "No", "timetable": "Yes", "advertising": "No", "other_comments": null, "stop_name": null, "suburb": "Glenwood", "num_amenities": 1 }, "geometry": { "type": "Point", "coordinates": [ 150.934485719885004, -33.733159590686903 ] } },
{ "type": "Feature", "properties": { "stop_id": 276880, "shelter": "Yes", "seat": "Yes", "timetable": "Yes", "advertising": "No", "other_comments": null, "stop_name": null, "suburb": "Glenwood", "num_amenities": 3 }, "geometry": { "type": "Point", "coordinates": [ 150.93449031930399, -33.733024277222498 ] } },
{ "type": "Feature", "properties": { "stop_id": 276872, "shelter": "No", "seat": "No", "timetable": "Yes", "advertising": "No", "other_comments": null, "stop_name": null, "suburb": "Glenwood", "num_amenities": 1 }, "geometry": { "type": "Point", "coordinates": [ 150.931354103303988, -33.7326016749413 ] } },
{ "type": "Feature", "properties": { "stop_id": 276879, "shelter": "Yes", "seat": "Yes", "timetable": "Yes", "advertising": "No", "other_comments": null, "stop_name": null, "suburb": "Glenwood", "num_amenities": 3 }, "geometry": { "type": "Point", "coordinates": [ 150.931578206263993, -33.732549473298803 ] } },
{ "type": "Feature", "properties": { "stop_id": 276873, "shelter": "No", "seat": "No", "timetable": "Yes", "advertising": "No", "other_comments": null, "stop_name": null, "suburb": "Glenwood", "num_amenities": 1 }, "geometry": { "type": "Point", "coordinates": [ 150.928350201537995, -33.731769274318502 ] } },
{ "type": "Feature", "properties": { "stop_id": 276878, "shelter": "No", "seat": "No", "timetable": "Yes", "advertising": "No", "other_comments": null, "stop_name": null, "suburb": "Glenwood", "num_amenities": 1 }, "geometry": { "type": "Point", "coordinates": [ 150.92838629749599, -33.731614934880596 ] } },
{ "type": "Feature", "properties": { "stop_id": 276827, "shelter": "Yes", "seat": "Yes", "timetable": "Yes", "advertising": "No", "other_comments": null, "stop_name": null, "suburb": "Glenwood", "num_amenities": 3 }, "geometry": { "type": "Point", "coordinates": [ 150.937949034857013, -33.734130352280097 ] } },
{ "type": "Feature", "properties": { "stop_id": 276869, "shelter": "No", "seat": "Yes", "timetable": "Yes", "advertising": "No", "other_comments": null, "stop_name": null, "suburb": "Glenwood", "num_amenities": 2 }, "geometry": { "type": "Point", "coordinates": [ 150.937588651088987, -33.735682760441598 ] } },
{ "type": "Feature", "properties": { "stop_id": 276828, "shelter": "No", "seat": "No", "timetable": "Yes", "advertising": "No", "other_comments": null, "stop_name": null, "suburb": "Glenwood", "num_amenities": 1 }, "geometry": { "type": "Point", "coordinates": [ 150.937685036571992, -33.736139247951002 ] } },
{ "type": "Feature", "properties": { "stop_id": 276829, "shelter": "No", "seat": "No", "timetable": "Yes", "advertising": "No", "other_comments": null, "stop_name": null, "suburb": "Glenwood", "num_amenities": 1 }, "geometry": { "type": "Point", "coordinates": [ 150.938326949583001, -33.7381462399604 ] } },
{ "type": "Feature", "properties": { "stop_id": 276868, "shelter": "No", "seat": "No", "timetable": "Yes", "advertising": "No", "other_comments": null, "stop_name": null, "suburb": "Glenwood", "num_amenities": 1 }, "geometry": { "type": "Point", "coordinates": [ 150.93822542628601, -33.738284649534101 ] } },
{ "type": "Feature", "properties": { "stop_id": 276867, "shelter": "Yes", "seat": "Yes", "timetable": "Yes", "advertising": "No", "other_comments": null, "stop_name": null, "suburb": "Glenwood", "num_amenities": 3 }, "geometry": { "type": "Point", "coordinates": [ 150.938542451643997, -33.739319808393901 ] } },
{ "type": "Feature", "properties": { "stop_id": 276881, "shelter": "Yes", "seat": "Yes", "timetable": "Yes", "advertising": "No", "other_comments": null, "stop_name": null, "suburb": "Glenwood", "num_amenities": 3 }, "geometry": { "type": "Point", "coordinates": [ 150.938674103489006, -33.739603957213397 ] } },
{ "type": "Feature", "properties": { "stop_id": 276830, "shelter": "No", "seat": "No", "timetable": "No", "advertising": "No", "other_comments": "Is this even a bus stop", "stop_name": null, "suburb": "Glenwood", "num_amenities": 0 }, "geometry": { "type": "Point", "coordinates": [ 150.937529512878001, -33.7398117313003 ] } },
{ "type": "Feature", "properties": { "stop_id": 276831, "shelter": "No", "seat": "No", "timetable": "No", "advertising": "No", "other_comments": "Is this even a bus stop", "stop_name": null, "suburb": "Glenwood", "num_amenities": 0 }, "geometry": { "type": "Point", "coordinates": [ 150.932343478359996, -33.7391482405381 ] } },
{ "type": "Feature", "properties": { "stop_id": 276890, "shelter": "No", "seat": "No", "timetable": "No", "advertising": "No", "other_comments": "Is this even a bus stop", "stop_name": null, "suburb": "Glenwood", "num_amenities": 0 }, "geometry": { "type": "Point", "coordinates": [ 150.928957271163, -33.738688503749103 ] } },
{ "type": "Feature", "properties": { "stop_id": 276866, "shelter": "No", "seat": "No", "timetable": "Yes", "advertising": "No", "other_comments": null, "stop_name": null, "suburb": "Glenwood", "num_amenities": 1 }, "geometry": { "type": "Point", "coordinates": [ 150.941630745914011, -33.740338478860799 ] } },
{ "type": "Feature", "properties": { "stop_id": 276882, "shelter": "Yes", "seat": "Yes", "timetable": "Yes", "advertising": "No", "other_comments": null, "stop_name": null, "suburb": "Glenwood", "num_amenities": 3 }, "geometry": { "type": "Point", "coordinates": [ 150.942026360048999, -33.740262751539802 ] } },
{ "type": "Feature", "properties": { "stop_id": 276865, "shelter": "No", "seat": "No", "timetable": "Yes", "advertising": "No", "other_comments": null, "stop_name": null, "suburb": "Glenwood", "num_amenities": 1 }, "geometry": { "type": "Point", "coordinates": [ 150.943143844145993, -33.740875810159601 ] } },
{ "type": "Feature", "properties": { "stop_id": 276883, "shelter": "No", "seat": "No", "timetable": "Yes", "advertising": "No", "other_comments": null, "stop_name": null, "suburb": "Glenwood", "num_amenities": 1 }, "geometry": { "type": "Point", "coordinates": [ 150.943161527054002, -33.741497008394703 ] } }
]
}
