{
"type": "FeatureCollection",
"name": "stop_nodes",
"crs": { "type": "name", "properties": { "name": "urn:ogc:def:crs:OGC:1.3:CRS84" } },
"features": [
{ "type": "Feature", "properties": { "stop_id": 2763180 }, "geometry": { "type": "Point", "coordinates": [ 150.909199369734495, -33.733830817766162 ] } },
{ "type": "Feature", "properties": { "stop_id": 276327 }, "geometry": { "type": "Point", "coordinates": [ 150.906191153643931, -33.73157688091883 ] } },
{ "type": "Feature", "properties": { "stop_id": 276365 }, "geometry": { "type": "Point", "coordinates": [ 150.915127107318284, -33.73447573613975 ] } },
{ "type": "Feature", "properties": { "stop_id": 276366 }, "geometry": { "type": "Point", "coordinates": [ 150.911909035965749, -33.73471938329871 ] } },
{ "type": "Feature", "properties": { "stop_id": 276367 }, "geometry": { "type": "Point", "coordinates": [ 150.909207464045863, -33.733992672465206 ] } },
{ "type": "Feature", "properties": { "stop_id": 276369 }, "geometry": { "type": "Point", "coordinates": [ 150.909039990584063, -33.73025547067126 ] } },
{ "type": "Feature", "properties": { "stop_id": 276859 }, "geometry": { "type": "Point", "coordinates": [ 150.91976191740423, -33.734047325937226 ] } },
{ "type": "Feature", "properties": { "stop_id": 2763136 }, "geometry": { "type": "Point", "coordinates": [ 150.914306137040512, -33.729823019308583 ] } },
{ "type": "Feature", "properties": { "stop_id": 2763140 }, "geometry": { "type": "Point", "coordinates": [ 150.918500622698218, -33.734785046765275 ] } },
{ "type": "Feature", "properties": { "stop_id": 2763141 }, "geometry": { "type": "Point", "coordinates": [ 150.912925291344891, -33.73234526728848 ] } },
{ "type": "Feature", "properties": { "stop_id": 2763142 }, "geometry": { "type": "Point", "coordinates": [ 150.913053762524981, -33.731348479356591 ] } },
{ "type": "Feature", "properties": { "stop_id": 2763143 }, "geometry": { "type": "Point", "coordinates": [ 150.913326328477325, -33.730546842978249 ] } },
{ "type": "Feature", "properties": { "stop_id": 2763144 }, "geometry": { "type": "Point", "coordinates": [ 150.913080361319913, -33.732599170378251 ] } },
{ "type": "Feature", "properties": { "stop_id": 2763145 }, "geometry": { "type": "Point", "coordinates": [ 150.913614302724767, -33.734373395810849 ] } },
{ "type": "Feature", "properties": { "stop_id": 2763146 }, "geometry": { "type": "Point", "coordinates": [ 150.916505726149012, -33.734482194344672 ] } },
{ "type": "Feature", "properties": { "stop_id": 2763147 }, "geometry": { "type": "Point", "coordinates": [ 150.918418659883997, -33.734705205809348 ] } },
{ "type": "Feature", "properties": { "stop_id": 2763154 }, "geometry": { "type": "Point", "coordinates": [ 150.913372338369186, -33.73018450666892 ] } },
{ "type": "Feature", "properties": { "stop_id": 2763174 }, "geometry": { "type": "Point", "coordinates": [ 150.906945898935646, -33.730271432747536 ] } },
{ "type": "Feature", "properties": { "stop_id": 2763179 }, "geometry": { "type": "Point", "coordinates": [ 150.913775156168612, -33.734514197518401 ] } },
{ "type": "Feature", "properties": { "stop_id": 2763133 }, "geometry": { "type": "Point", "coordinates": [ 150.914167431563328, -33.729618145829427 ] } },
{ "type": "Feature", "properties": { "stop_id": 2763134 }, "geometry": { "type": "Point", "coordinates": [ 150.919107446583865, -33.730186189092912 ] } },
{ "type": "Feature", "properties": { "stop_id": 2763173 }, "geometry": { "type": "Point", "coordinates": [ 150.909491665208037, -33.729994591820251 ] } },
{ "type": "Feature", "properties": { "stop_id": 276346 }, "geometry": { "type": "Point", "coordinates": [ 150.906187215464882, -33.731592320891004 ] } },
{ "type": "Feature", "properties": { "stop_id": 276368 }, "geometry": { "type": "Point", "coordinates": [ 150.907300817923499, -33.730117186670611 ] } },
{ "type": "Feature", "properties": { "stop_id": 2763135 }, "geometry": { "type": "Point", "coordinates": [ 150.918968105678118, -33.73035477718053 ] } },
{ "type": "Feature", "properties": { "stop_id": 276816 }, "geometry": { "type": "Point", "coordinates": [ 150.923641689216083, -33.737895504101864 ] } },
{ "type": "Feature", "properties": { "stop_id": 2768163 }, "geometry": { "type": "Point", "coordinates": [ 150.937826962326568, -33.732783265135119 ] } },
{ "type": "Feature", "properties": { "stop_id": 2768164 }, "geometry": { "type": "Point", "coordinates": [ 150.923921279924116, -33.728841786459924 ] } },
{ "type": "Feature", "properties": { "stop_id": 2768165 }, "geometry": { "type": "Point", "coordinates": [ 150.939414296311412, -33.729142969511365 ] } },
{ "type": "Feature", "properties": { "stop_id": 2768167 }, "geometry": { "type": "Point", "coordinates": [ 150.949892438910325, -33.747634148688221 ] } },
{ "type": "Feature", "properties": { "stop_id": 276817 }, "geometry": { "type": "Point", "coordinates": [ 150.926320488359465, -33.738226212275897 ] } },
{ "type": "Feature", "properties": { "stop_id": 276818 }, "geometry": { "type": "Point", "coordinates": [ 150.927646709728151, -33.736375439028386 ] } },
{ "type": "Feature", "properties": { "stop_id": 276819 }, "geometry": { "type": "Point", "coordinates": [ 150.927615184572659, -33.733671918173769 ] } },
{ "type": "Feature", "properties": { "stop_id": 276820 }, "geometry": { "type": "Point", "coordinates": [ 150.928004190209748, -33.729737181038296 ] } },
{ "type": "Feature", "properties": { "stop_id": 276821 }, "geometry": { "type": "Point", "coordinates": [ 150.930626035150595, -33.727229751192439 ] } },
{ "type": "Feature", "properties": { "stop_id": 276822 }, "geometry": { "type": "Point", "coordinates": [ 150.933050676446896, -33.726982342247005 ] } },
{ "type": "Feature", "properties": { "stop_id": 276823 }, "geometry": { "type": "Point", "coordinates": [ 150.93487195062113, -33.726742086308313 ] } },
{ "type": "Feature", "properties": { "stop_id": 276824 }, "geometry": { "type": "Point", "coordinates": [ 150.935681455091753, -33.726755226971463 ] } },
{ "type": "Feature", "properties": { "stop_id": 276825 }, "geometry": { "type": "Point", "coordinates": [ 150.938292580390538, -33.72723839998195 ] } },
{ "type": "Feature", "properties": { "stop_id": 276826 }, "geometry": { "type": "Point", "coordinates": [ 150.938424698271149, -33.731742031499181 ] } },
{ "type": "Feature", "properties": { "stop_id": 276827 }, "geometry": { "type": "Point", "coordinates": [ 150.937943057133253, -33.734129534566684 ] } },
{ "type": "Feature", "properties": { "stop_id": 276828 }, "geometry": { "type": "Point", "coordinates": [ 150.937688150201012, -33.736139573487954 ] } },
{ "type": "Feature", "properties": { "stop_id": 276829 }, "geometry": { "type": "Point", "coordinates": [ 150.938354227438964, -33.738136103784726 ] } },
{ "type": "Feature", "properties": { "stop_id": 276830 }, "geometry": { "type": "Point", "coordinates": [ 150.937541333453794, -33.739751815610916 ] } },
{ "type": "Feature", "properties": { "stop_id": 276831 }, "geometry": { "type": "Point", "coordinates": [ 150.932361548188737, -33.739051044425935 ] } },
{ "type": "Feature", "properties": { "stop_id": 276832 }, "geometry": { "type": "Point", "coordinates": [ 150.926302161477167, -33.738378859454684 ] } },
{ "type": "Feature", "properties": { "stop_id": 276833 }, "geometry": { "type": "Point", "coordinates": [ 150.923562779330354, -33.738040396186527 ] } },
{ "type": "Feature", "properties": { "stop_id": 276834 }, "geometry": { "type": "Point", "coordinates": [ 150.920243482149885, -33.737795221330281 ] } },
{ "type": "Feature", "properties": { "stop_id": 276835 }, "geometry": { "type": "Point", "coordinates": [ 150.923974680929348, -33.728640135611634 ] } },
{ "type": "Feature", "properties": { "stop_id": 276836 }, "geometry": { "type": "Point", "coordinates": [ 150.925870822357552, -33.729718380202598 ] } },
{ "type": "Feature", "properties": { "stop_id": 276865 }, "geometry": { "type": "Point", "coordinates": [ 150.943116900591747, -33.740871860798677 ] } },
{ "type": "Feature", "properties": { "stop_id": 276866 }, "geometry": { "type": "Point", "coordinates": [ 150.941628677360598, -33.74034974592098 ] } },
{ "type": "Feature", "properties": { "stop_id": 276867 }, "geometry": { "type": "Point", "coordinates": [ 150.93854555755982, -33.739319733917078 ] } },
{ "type": "Feature", "properties": { "stop_id": 276868 }, "geometry": { "type": "Point", "coordinates": [ 150.938238902220149, -33.738279655015283 ] } },
{ "type": "Feature", "properties": { "stop_id": 276869 }, "geometry": { "type": "Point", "coordinates": [ 150.937581166963895, -33.735682467668504 ] } },
{ "type": "Feature", "properties": { "stop_id": 276870 }, "geometry": { "type": "Point", "coordinates": [ 150.937470227329953, -33.733558523075565 ] } },
{ "type": "Feature", "properties": { "stop_id": 276871 }, "geometry": { "type": "Point", "coordinates": [ 150.934486572458269, -33.733155281027777 ] } },
{ "type": "Feature", "properties": { "stop_id": 276872 }, "geometry": { "type": "Point", "coordinates": [ 150.931359527624949, -33.732592281375226 ] } },
{ "type": "Feature", "properties": { "stop_id": 276873 }, "geometry": { "type": "Point", "coordinates": [ 150.92834912008297, -33.731741071479853 ] } },
{ "type": "Feature", "properties": { "stop_id": 276874 }, "geometry": { "type": "Point", "coordinates": [ 150.927410085461048, -33.730225390836047 ] } },
{ "type": "Feature", "properties": { "stop_id": 276875 }, "geometry": { "type": "Point", "coordinates": [ 150.925568282803596, -33.729738865531601 ] } },
{ "type": "Feature", "properties": { "stop_id": 276877 }, "geometry": { "type": "Point", "coordinates": [ 150.927490676383826, -33.730093605414758 ] } },
{ "type": "Feature", "properties": { "stop_id": 276878 }, "geometry": { "type": "Point", "coordinates": [ 150.928385646569467, -33.731601301828434 ] } },
{ "type": "Feature", "properties": { "stop_id": 276879 }, "geometry": { "type": "Point", "coordinates": [ 150.931583885376995, -33.732537264714274 ] } },
{ "type": "Feature", "properties": { "stop_id": 276880 }, "geometry": { "type": "Point", "coordinates": [ 150.934493647328338, -33.73300683878297 ] } },
{ "type": "Feature", "properties": { "stop_id": 276881 }, "geometry": { "type": "Point", "coordinates": [ 150.938705180390713, -33.739606452359062 ] } },
{ "type": "Feature", "properties": { "stop_id": 276882 }, "geometry": { "type": "Point", "coordinates": [ 150.942029449109782, -33.74024587940486 ] } },
{ "type": "Feature", "properties": { "stop_id": 276883 }, "geometry": { "type": "Point", "coordinates": [ 150.943129941616945, -33.74149769664389 ] } },
{ "type": "Feature", "properties": { "stop_id": 276890 }, "geometry": { "type": "Point", "coordinates": [ 150.928955291812542, -33.738699501468751 ] } },
{ "type": "Feature", "properties": { "stop_id": 2155219 }, "geometry": { "type": "Point", "coordinates": [ 150.940027756444778, -33.724601758653975 ] } },
{ "type": "Feature", "properties": { "stop_id": 2768143 }, "geometry": { "type": "Point", "coordinates": [ 150.952130676923446, -33.753184188875181 ] } },
{ "type": "Feature", "properties": { "stop_id": 2153389 }, "geometry": { "type": "Point", "coordinates": [ 150.9500357, -33.7481275 ] } },
{ "type": "Feature", "properties": { "stop_id": 2768103 }, "geometry": { "type": "Point", "coordinates": [ 150.938134515443949, -33.732745933729348 ] } },
{ "type": "Feature", "properties": { "stop_id": 2768104 }, "geometry": { "type": "Point", "coordinates": [ 150.939293897971567, -33.729386210341112 ] } },
{ "type": "Feature", "properties": { "stop_id": 2768105 }, "geometry": { "type": "Point", "coordinates": [ 150.937707848076826, -33.727084702990716 ] } },
{ "type": "Feature", "properties": { "stop_id": 2768106 }, "geometry": { "type": "Point", "coordinates": [ 150.935342127543919, -33.726893170279212 ] } },
{ "type": "Feature", "properties": { "stop_id": 2768107 }, "geometry": { "type": "Point", "coordinates": [ 150.932694931225484, -33.72705879037764 ] } },
{ "type": "Feature", "properties": { "stop_id": 2768108 }, "geometry": { "type": "Point", "coordinates": [ 150.930787063500873, -33.727293049263238 ] } },
{ "type": "Feature", "properties": { "stop_id": 2768109 }, "geometry": { "type": "Point", "coordinates": [ 150.928124066610167, -33.729825926350784 ] } },
{ "type": "Feature", "properties": { "stop_id": 2768110 }, "geometry": { "type": "Point", "coordinates": [ 150.927795013340472, -33.733556666996215 ] } },
{ "type": "Feature", "properties": { "stop_id": 2768111 }, "geometry": { "type": "Point", "coordinates": [ 150.927856697673775, -33.736463051472192 ] } },
{ "type": "Feature", "properties": { "stop_id": 276814 }, "geometry": { "type": "Point", "coordinates": [ 150.919860008362974, -33.737620196403313 ] } },
{ "type": "Feature", "properties": { "stop_id": 2768144 }, "geometry": { "type": "Point", "coordinates": [ 150.951642719084617, -33.752281803037228 ] } },
{ "type": "Feature", "properties": { "stop_id": 2768145 }, "geometry": { "type": "Point", "coordinates": [ 150.949646396889563, -33.747939480580897 ] } },
{ "type": "Feature", "properties": { "stop_id": 2768146 }, "geometry": { "type": "Point", "coordinates": [ 150.946173110022357, -33.74010243930659 ] } },
{ "type": "Feature", "properties": { "stop_id": 2768147 }, "geometry": { "type": "Point", "coordinates": [ 150.9459223, -33.739794899999985 ] } },
{ "type": "Feature", "properties": { "stop_id": 2768148 }, "geometry": { "type": "Point", "coordinates": [ 150.942849053797516, -33.732713956435951 ] } },
{ "type": "Feature", "properties": { "stop_id": 2768149 }, "geometry": { "type": "Point", "coordinates": [ 150.943719254620021, -33.734459265855243 ] } },
{ "type": "Feature", "properties": { "stop_id": 276815 }, "geometry": { "type": "Point", "coordinates": [ 150.923625021701696, -33.737758375299556 ] } },
{ "type": "Feature", "properties": { "stop_id": 2768150 }, "geometry": { "type": "Point", "coordinates": [ 150.932147582029728, -33.721726218982717 ] } },
{ "type": "Feature", "properties": { "stop_id": 2768151 }, "geometry": { "type": "Point", "coordinates": [ 150.931431762194705, -33.722351842755103 ] } },
{ "type": "Feature", "properties": { "stop_id": 2768152 }, "geometry": { "type": "Point", "coordinates": [ 150.923369150377766, -33.728596097545768 ] } },
{ "type": "Feature", "properties": { "stop_id": 2768153 }, "geometry": { "type": "Point", "coordinates": [ 150.923273159928726, -33.728659738892972 ] } },
{ "type": "Feature", "properties": { "stop_id": 2768154 }, "geometry": { "type": "Point", "coordinates": [ 150.919472485524636, -33.735247343444826 ] } },
{ "type": "Feature", "properties": { "stop_id": 2768155 }, "geometry": { "type": "Point", "coordinates": [ 150.91972948911922, -33.73535299527547 ] } }
]
}
